NORAD_CAT_ID,OBJECT_NAME,OBJECT_TYPE,EPOCH,MEAN_MOTION,ECCENTRICITY,INCLINATION,RA_OF_ASC_NODE,ARG_OF_PERICENTER,MEAN_ANOMALY,BSTAR,MEAN_MOTION_DOT,MEAN_MOTION_DDOT,TLE_LINE0,TLE_LINE1,TLE_LINE2,SEMIMAJOR_AXIS,PERIOD,APOGEE,PERIGEE,DECAYED
52122.0,STARLINK-3726,PAYLOAD,2024-02-02 23:41:01,15.08837979,0.0001403,53.217,276.4954,85.3055,274.8097,6.3465e-05,7.22e-06,0.0,0 STARLINK-3726,1 52122U 22029AL  24033.98682336  .00000722  00000-0  63465-4 0  9993,2 52122  53.2170 276.4954 0001403  85.3055 274.8097 15.08837979105193,6917.887,95.438,540.722,538.781,0.0
52122.0,STARLINK-3726,PAYLOAD,2024-02-03 21:56:25,15.0884208,0.0001483,53.2168,272.3325,79.8231,280.2928,6.9216e-05,8.14e-06,0.0,0 STARLINK-3726,1 52122U 22029AL  24034.91418155  .00000814  00000-0  69216-4 0  9995,2 52122  53.2168 272.3325 0001483  79.8231 280.2928 15.08842080105338,6917.874,95.437,540.765,538.713,0.0
52122.0,STARLINK-3726,PAYLOAD,2024-02-04 01:07:11,15.08845948,0.0001511,53.2171,271.7377,79.6899,280.4264,9.9484e-05,1.296e-05,0.0,0 STARLINK-3726,1 52122U 22029AL  24035.04665810  .00001296  00000-0  99484-4 0  9997,2 52122  53.2171 271.7377 0001511  79.6899 280.4264 15.08845948105355,6917.862,95.437,540.772,538.682,0.0
52122.0,STARLINK-3726,PAYLOAD,2024-02-04 20:11:49,15.08840886,0.0001482,53.2166,268.1682,86.2123,273.9039,3.8811e-05,3.3e-06,0.0,0 STARLINK-3726,1 52122U 22029AL  24035.84154222  .00000330  00000-0  38811-4 0  9990,2 52122  53.2166 268.1682 0001482  86.2123 273.9039 15.08840886105475,6917.878,95.437,540.768,538.717,0.0
52122.0,STARLINK-3726,PAYLOAD,2024-02-04 21:47:12,15.088409,0.000149,53.2166,267.8708,85.6245,274.4917,3.7194e-05,3.04e-06,0.0,0 STARLINK-3726,1 52122U 22029AL  24035.90778194  .00000304  00000-0  37194-4 0  9991,2 52122  53.2166 267.8708 0001490  85.6245 274.4917 15.08840900105486,6917.878,95.437,540.773,538.712,0.0
52122.0,STARLINK-3726,PAYLOAD,2024-02-05 00:57:59,15.08803732,0.0001584,53.2176,267.2724,85.9977,274.1196,0.00057372,8.846e-05,0.0,0 STARLINK-3726,1 52122U 22029AL  24036.04027297  .00008846  00000-0  57372-3 0  9996,2 52122  53.2176 267.2724 0001584  85.9977 274.1196 15.08803732105509,6917.991,95.44,540.952,538.76,0.0
52122.0,STARLINK-3726,PAYLOAD,2024-02-05 08:54:53,15.08850371,0.0001519,53.2165,265.7871,127.5063,232.6068,-7.2343e-05,-1.44e-05,0.0,0 STARLINK-3726,1 52122U 22029AL  24036.37145527 -.00001440  00000-0 -72343-4 0  9990,2 52122  53.2165 265.7871 0001519 127.5063 232.6068 15.08850371105553,6917.849,95.437,540.765,538.663,0.0
52122.0,STARLINK-3726,PAYLOAD,2024-02-05 20:02:36,15.08843123,0.0001519,53.217,263.7063,113.1585,246.9567,-1.2221e-05,-4.83e-06,0.0,0 STARLINK-3726,1 52122U 22029AL  24036.83514009 -.00000483  00000-0 -12221-4 0  9991,2 52122  53.2170 263.7063 0001519 113.1585 246.9567 15.08843123105627,6917.871,95.437,540.787,538.685,0.0
52122.0,STARLINK-3726,PAYLOAD,2024-02-05 21:37:59,15.0884364,0.000158,53.2172,263.4092,115.292,244.8236,1.6161e-06,-2.62e-06,0.0,0 STARLINK-3726,1 52122U 22029AL  24036.90137910 -.00000262  00000-0  16161-5 0  9993,2 52122  53.2172 263.4092 0001580 115.2920 244.8236 15.08843640105637,6917.869,95.437,540.827,538.641,0.0
52122.0,STARLINK-3726,PAYLOAD,2024-02-06 00:48:45,15.08853206,0.0001608,53.2169,262.8146,103.7016,256.4155,-0.00012207,-2.231e-05,0.0,0 STARLINK-3726,1 52122U 22029AL  24037.03385741 -.00002231  00000-0 -12207-3 0  9999,2 52122  53.2169 262.8146 0001608 103.7016 256.4155 15.08853206105655,6917.84,95.437,540.817,538.593,0.0
52122.0,STARLINK-3726,PAYLOAD,2024-02-06 19:53:23,15.08839483,0.0001538,53.2176,259.2448,106.3179,253.7982,2.4341e-05,9.9e-07,0.0,0 STARLINK-3726,1 52122U 22029AL  24037.82874078  .00000099  00000-0  24341-4 0  9993,2 52122  53.2176 259.2448 0001538 106.3179 253.7982 15.08839483105771,6917.882,95.438,540.811,538.683,0.0
52122.0,STARLINK-3726,PAYLOAD,2024-02-06 21:28:46,15.08840108,0.0001528,53.2176,258.9475,105.8973,254.2188,2.7808e-05,1.55e-06,0.0,0 STARLINK-3726,1 52122U 22029AL  24037.89498052  .00000155  00000-0  27808-4 0  9998,2 52122  53.2176 258.9475 0001528 105.8973 254.2188 15.08840108105783,6917.88,95.438,540.802,538.688,0.0
52122.0,STARLINK-3726,PAYLOAD,2024-02-07 00:39:32,15.08840692,0.0001528,53.2176,258.3526,106.4925,253.6235,3.2382e-05,2.27e-06,0.0,0 STARLINK-3726,1 52122U 22029AL  24038.02745991  .00000227  00000-0  32382-4 0  9994,2 52122  53.2176 258.3526 0001528 106.4925 253.6235 15.08840692105805,6917.878,95.438,540.8,538.686,0.0
52122.0,STARLINK-3726,PAYLOAD,2024-02-07 19:44:10,15.08834474,0.0001534,53.2178,254.7841,110.2633,249.8524,3.3093e-06,-2.35e-06,0.0,0 STARLINK-3726,1 52122U 22029AL  24038.82234654 -.00000235  00000-0  33093-5 0  9992,2 52122  53.2178 254.7841 0001534 110.2633 249.8524 15.08834474105925,6917.897,95.438,540.823,538.701,0.0
52122.0,STARLINK-3726,PAYLOAD,2024-02-07 21:19:33,15.0883696,0.0001241,53.2154,254.4884,71.6529,288.4599,1.3017e-05,-8.1e-07,0.0,0 STARLINK-3726,1 52122U 22029AL  24038.88858616 -.00000081  00000-0  13017-4 0  9990,2 52122  53.2154 254.4884 0001241  71.6529 288.4599 15.08836960105936,6917.89,95.438,540.613,538.896,0.0
52122.0,STARLINK-3726,PAYLOAD,2024-02-08 00:30:20,15.08837106,0.0001246,53.216,253.8951,89.3226,270.7909,1.2237e-05,-9.3e-07,0.0,0 STARLINK-3726,1 52122U 22029AL  24039.02106605 -.00000093  00000-0  12237-4 0  9997,2 52122  53.2160 253.8951 0001246  89.3226 270.7909 15.08837106105950,6917.889,95.438,540.616,538.892,0.0
52122.0,STARLINK-3726,PAYLOAD,2024-02-08 21:10:20,15.08841483,0.0001111,53.2159,250.029,76.7819,283.3297,-5.5879e-06,-3.77e-06,0.0,0 STARLINK-3726,1 52122U 22029AL  24039.88218738 -.00000377  00000-0 -55879-5 0  9998,2 52122  53.2159 250.0290 0001111  76.7819 283.3297 15.08841483106080,6917.876,95.437,540.509,538.972,0.0
52122.0,STARLINK-3726,PAYLOAD,2024-02-09 13:04:13,15.08814341,0.0001136,53.2163,247.0567,92.3093,267.803,0.00027864,4.146e-05,0.0,0 STARLINK-3726,1 52122U 22029AL  24040.54460092  .00004146  00000-0  27864-3 0  9992,2 52122  53.2163 247.0567 0001136  92.3093 267.8030 15.08814341106189,6917.959,95.439,540.61,539.038,0.0
52122.0,STARLINK-3726,PAYLOAD,2024-02-09 19:25:45,15.08832485,0.0001184,53.2161,245.867,86.1242,273.9886,2.6e-05,1.26e-06,0.0,0 STARLINK-3726,1 52122U 22029AL  24040.80955635  .00000126  00000-0  26000-4 0  9999,2 52122  53.2161 245.8670 0001184  86.1242 273.9886 15.08832485106229,6917.903,95.438,540.587,538.949,0.0
52122.0,STARLINK-3726,PAYLOAD,2024-02-10 00:11:54,15.08835492,0.0001204,53.2161,244.9748,85.8847,274.2282,4.7569e-05,4.69e-06,0.0,0 STARLINK-3726,1 52122U 22029AL  24041.00827446  .00000469  00000-0  47569-4 0  9993,2 52122  53.2161 244.9748 0001204  85.8847 274.2282 15.08835492106253,6917.894,95.438,540.592,538.926,0.0
52122.0,STARLINK-3726,PAYLOAD,2024-02-10 19:16:31,15.08845641,0.0001211,53.2162,241.4059,94.5531,265.56,0.00013603,1.878e-05,0.0,0 STARLINK-3726,1 52122U 22029AL  24041.80314620  .00001878  00000-0  13603-3 0  9992,2 52122  53.2162 241.4059 0001211  94.5531 265.5600 15.08845641106373,6917.863,95.437,540.566,538.89,0.0
52122.0,STARLINK-3726,PAYLOAD,2024-02-10 20:51:54,15.08846948,0.0001227,53.2163,241.1086,93.7669,266.3463,0.00014675,2.049e-05,0.0,0 STARLINK-3726,1 52122U 22029AL  24041.86938514  .00002049  00000-0  14675-3 0  9993,2 52122  53.2163 241.1086 0001227  93.7669 266.3463 15.08846948106389,6917.859,95.437,540.573,538.875,0.0
52122.0,STARLINK-3726,PAYLOAD,2024-02-11 12:45:46,15.08843438,0.0001264,53.2161,238.1351,86.407,273.7067,0.0001087,1.443e-05,0.0,0 STARLINK-3726,1 52122U 22029AL  24042.53178762  .00001443  00000-0  10870-3 0  9999,2 52122  53.2161 238.1351 0001264  86.4070 273.7067 15.08843438106488,6917.87,95.437,540.609,538.86,0.0
52122.0,STARLINK-3726,PAYLOAD,2024-02-11 19:07:18,15.08846539,0.0001259,53.2161,236.9458,87.4166,272.697,0.00013052,1.79e-05,0.0,0 STARLINK-3726,1 52122U 22029AL  24042.79674446  .00001790  00000-0  13052-3 0  9997,2 52122  53.2161 236.9458 0001259  87.4166 272.6970 15.08846539106524,6917.86,95.437,540.596,538.854,0.0
52122.0,STARLINK-3726,PAYLOAD,2024-02-12 18:58:06,15.08845277,0.0001417,53.2163,232.4878,78.3183,281.7968,-8.7145e-06,-4.27e-06,0.0,0 STARLINK-3726,1 52122U 22029AL  24043.79034756 -.00000427  00000-0 -87145-5 0  9996,2 52122  53.2163 232.4878 0001417  78.3183 281.7968 15.08845277106679,6917.864,95.437,540.71,538.749,0.0
52122.0,STARLINK-3726,PAYLOAD,2024-02-13 12:27:20,15.08836583,0.0001341,53.2155,229.2151,91.7084,268.4062,-1.2064e-05,-4.8e-06,0.0,0 STARLINK-3726,1 52122U 22029AL  24044.51898998 -.00000480  00000-0 -12064-4 0  9999,2 52122  53.2155 229.2151 0001341  91.7084 268.4062 15.08836583106782,6917.891,95.438,540.684,538.828,0.0
52122.0,STARLINK-3726,PAYLOAD,2024-02-13 14:02:43,15.08837378,0.000135,53.2156,228.917,103.276,256.8383,-2.8399e-06,-3.33e-06,0.0,0 STARLINK-3726,1 52122U 22029AL  24044.58522899 -.00000333  00000-0 -28399-5 0  9996,2 52122  53.2156 228.9170 0001350 103.2760 256.8383 15.08837378106791,6917.888,95.438,540.687,538.819,0.0
52122.0,STARLINK-3726,PAYLOAD,2024-02-13 20:24:15,15.08845646,0.000123,53.2158,227.7267,91.6433,268.47,-3.3626e-06,-3.41e-06,0.0,0 STARLINK-3726,1 52122U 22029AL  24044.85018370 -.00000341  00000-0 -33626-5 0  9998,2 52122  53.2158 227.7267 0001230  91.6433 268.4700 15.08845646106835,6917.863,95.437,540.579,538.877,0.0
52122.0,STARLINK-3726,PAYLOAD,2024-02-13 21:59:38,15.08846189,0.000123,53.2158,227.4292,93.2366,266.8767,2.7806e-06,-2.44e-06,0.0,0 STARLINK-3726,1 52122U 22029AL  24044.91642305 -.00000244  00000-0  27806-5 0  9990,2 52122  53.2158 227.4292 0001230  93.2366 266.8767 15.08846189106842,6917.861,95.437,540.577,538.876,0.0
52122.0,STARLINK-3726,PAYLOAD,2024-02-14 12:18:07,15.08839053,0.0001287,53.2155,224.7526,98.7345,261.3793,9.8791e-06,-1.31e-06,0.0,0 STARLINK-3726,1 52122U 22029AL  24045.51258793 -.00000131  00000-0  98791-5 0  9997,2 52122  53.2155 224.7526 0001287  98.7345 261.3793 15.08839053106939,6917.883,95.438,540.639,538.858,0.0
